satname,norad_id,inclination_deg,eccentricity,mean_motion_rev_per_day,perigee_km,apogee_km,l1,l2
STARLINK-1494,45760,53.0528,0.000563,15.54881752,398.6788869010343,406.31388009085185,1 45760U 20038AG  25341.21668456  .00053120  00000+0  78309-3 0  9998,2 45760  53.0528 244.6931 0005630 120.8502 239.3062 15.54881752302925
STARLINK-1502,45764,53.054,0.0001965,15.06385566,545.8949567381387,548.6166361071328,1 45764U 20038AL  25341.19986789  .00001609  00000+0  12697-3 0  9994,2 45764  53.0540 271.8210 0001965  95.6344 264.4869 15.06385566302546
STARLINK-1470,45772,53.0518,0.0007099,15.20338926,499.93127911053034,509.7036978933047,1 45772U 20038AU  25341.01271300  .00012406  00000+0  57673-3 0  9990,2 45772  53.0518 241.8746 0007099  57.1320 303.0357 15.20338926302942
STARLINK-1482,45773,53.0561,0.0001918,15.06383321,545.9343854846493,548.5909688008014,1 45773U 20038AV  25341.16485089  .00007474  00000+0  52032-3 0  9991,2 45773  53.0561 251.9733 0001918 107.8693 252.2506 15.06383321302819
STARLINK-1496,45780,53.0539,0.0001164,15.06405996,546.3870726897321,547.999289555898,1 45780U 20038BC  25340.99896849  .00008253  00000+0  57220-3 0  9999,2 45780  53.0539 252.7249 0001164 114.3130 245.7981 15.06405996302777
STARLINK-1497,45781,53.0339,0.0006535,15.6518808,368.28622765516684,377.10956886719396,1 45781U 20038BD  25341.00002315  .00086226  00000+0  85110-3 0  9995,2 45781  53.0339 184.1956 0006535 100.0471 122.5579 15.65188080  5677
STARLINK-1510,45784,53.0237,0.0002261,15.87269097,308.4309492068196,311.4552990389475,1 45784U 20038BG  25341.33336806  .00495424  00000+0  17515-2 0  9996,2 45784  53.0237 153.7273 0002261 238.8149 230.9287 15.87269097  5958
STARLINK-1513,45786,53.0548,0.0001361,15.06392817,546.291029951246,548.1761158211848,1 45786U 20038BJ  25341.16115607 -.00001523  00000+0 -83389-4 0  9992,2 45786  53.0548 251.9952 0001361  85.1705 274.9439 15.06392817302811
STARLINK-1522,46027,53.055,0.0001603,15.06394902,546.1170467396223,548.3373184965685,1 46027U 20055A   25341.27449510  .00000004  00000+0  19161-4 0  9993,2 46027  53.0550 181.4850 0001603  92.9834 267.1339 15.06394902294950
STARLINK-1523,46028,53.0554,0.0001498,15.06392225,546.1979665123481,548.2728080795814,1 46028U 20055B   25341.28924047  .00000349  00000+0  42352-4 0  9998,2 46028  53.0554 181.4229 0001498  88.1588 271.9573 15.06392225294971
STARLINK-1526,46029,53.0541,0.0001388,15.06396741,546.2603065556732,548.1827860881322,1 46029U 20055C   25341.28186706  .00000805  00000+0  72943-4 0  9997,2 46029  53.0541 181.4520 0001388  92.5047 267.6101 15.06396741294964
STARLINK-1555,46032,53.0527,0.0001495,15.06382497,546.2298550025089,548.3005502610968,1 46032U 20055F   25341.26713626  .00004746  00000+0  33747-3 0  9992,2 46032  53.0527 181.5179 0001495  83.3944 276.7215 15.06382497294966
STARLINK-1556,46033,53.0532,0.0001492,15.06396343,546.1895024621399,548.2560298163562,1 46033U 20055G   25340.98330255 -.00001172  00000+0 -59786-4 0  9998,2 46033  53.0532 182.7927 0001492  96.6585 263.4574 15.06396343294890
STARLINK-1557,46034,53.0535,0.000133,15.06392408,546.3137519696393,548.1559008754675,1 46034U 20055H   25341.25236597 -.00002159  00000+0 -12609-3 0  9992,2 46034  53.0535 181.5841 0001330  96.8467 263.2674 15.06392408294930
STARLINK-1558,46035,53.0534,0.0001348,15.06389326,546.3107310085925,548.1778137996325,1 46035U 20055J   25341.25976292 -.00001127  00000+0 -56770-4 0  9998,2 46035  53.0534 181.5550 0001348  94.9938 265.1205 15.06389326294967
STARLINK-1560,46036,53.0544,0.0001608,15.06397448,546.105782155947,548.3329767675814,1 46036U 20055K   25340.84692143 -.00000185  00000+0  64814-5 0  9994,2 46036  53.0544 183.4097 0001608  92.0516 268.0657 15.06397448294907
STARLINK-1567,46038,53.0551,0.0001487,15.06396023,546.1939457542376,548.253548040364,1 46038U 20055M   25341.25606366  .00001701  00000+0  13307-3 0  9997,2 46038  53.0551 181.5699 0001487  96.1342 263.9817 15.06396023294956
STARLINK-1569,46039,53.0549,0.0001433,15.06399061,546.222032978777,548.2068387002882,1 46039U 20055N   25341.26343691  .00000676  00000+0  64248-4 0  9999,2 46039  53.0549 181.5368 0001433  91.2471 268.8683 15.06399061294957
STARLINK-1582,46043,53.0544,0.0001374,15.06393517,546.27988184888,548.1829730927493,1 46043U 20055S   25341.27080982  .00000845  00000+0  75634-4 0  9995,2 46043  53.0544 181.5025 0001374  93.0071 267.1075 15.06393517294954
STARLINK-1591,46045,53.0548,0.0001407,15.06394783,546.2531485462268,548.2019461298469,1 46045U 20055U   25341.29660888  .00001289  00000+0  10545-3 0  9990,2 46045  53.0548 181.3874 0001407  88.7144 271.4006 15.06394783294946
STARLINK-1524,46047,53.0539,0.0001383,15.06396437,546.2647008258218,548.1802552574482,1 46047U 20055W   25341.24961046  .00000182  00000+0  31121-4 0  9992,2 46047  53.0539 171.5986 0001383  98.5607 261.5538 15.06396437295094
STARLINK-1527,46048,53.0547,0.000151,15.06389421,546.1982487112045,548.2897137675382,1 46048U 20055X   25340.98054033  .00000581  00000+0  57915-4 0  9994,2 46048  53.0547 172.8049 0001510  90.5888 269.5274 15.06389421295037
STARLINK-1540,46051,53.0538,0.0001139,15.06387369,546.4614687944813,548.0390720146788,1 46051U 20055AA  25340.81466737  .00000380  00000+0  44426-4 0  9998,2 46051  53.0538 173.5509 0001139  72.7078 287.4036 15.06387369295045
STARLINK-1541,46052,53.0544,0.0001387,15.0639886,546.2545055466953,548.1755982058858,1 46052U 20055AB  25341.26435214  .00001914  00000+0  14738-3 0  9991,2 46052  53.0544 171.5300 0001387  83.2069 276.9078 15.06398860295072
STARLINK-1543,46053,53.054,0.0001621,15.06392489,546.1119754343244,548.3571808999668,1 46053U 20055AC  25341.26804151 -.00000099  00000+0  12237-4 0  9999,2 46053  53.0540 171.5125 0001621  90.2841 269.8334 15.06392489295102
STARLINK-1548,46054,53.0543,0.0001343,15.06399688,546.2824397337536,548.1425886132602,1 46054U 20055AD  25341.27541268  .00000003  00000+0  19069-4 0  9992,2 46054  53.0543 171.4820 0001343  92.6849 267.4294 15.06399688295109
STARLINK-1554,46055,53.0521,0.0001797,15.06389602,545.9989356313627,548.4879173566442,1 46055U 20055AE  25341.26066260 -.00002071  00000+0 -12022-3 0  9996,2 46055  53.0521 171.5479 0001797 100.9536 259.1655 15.06389602295100
STARLINK-1564,46058,53.0543,0.000155,15.06394635,546.1545693642311,548.3014325145223,1 46058U 20055AH  25340.80735653  .00001090  00000+0  92062-4 0  9998,2 46058  53.0543 174.0439 0001550  92.3350 267.7817 15.06394635295024
